NORAD_CAT_ID,OBJECT_NAME,OBJECT_TYPE,EPOCH,MEAN_MOTION,ECCENTRICITY,INCLINATION,RA_OF_ASC_NODE,ARG_OF_PERICENTER,MEAN_ANOMALY,BSTAR,MEAN_MOTION_DOT,MEAN_MOTION_DDOT,TLE_LINE0,TLE_LINE1,TLE_LINE2,SEMIMAJOR_AXIS,PERIOD,APOGEE,PERIGEE,DECAYED
55763.0,STARLINK-5593,PAYLOAD,2023-12-13 14:39:49,14.98312177,0.0002701,69.9997,144.4423,266.7187,93.3663,-0.00014299,-1.798e-05,0.0,0 STARLINK-5593,1 55763U 23028Y   23347.61099302 -.00001798  00000-0 -14299-3 0  9995,2 55763  69.9997 144.4423 0002701 266.7187  93.3663 14.98312177 43657,6950.248,96.108,573.99,570.236,0.0
55763.0,STARLINK-5593,PAYLOAD,2023-12-13 21:04:22,14.98312887,0.00027,69.9995,143.7692,266.0989,93.9861,-0.00013722,-1.729e-05,0.0,0 STARLINK-5593,1 55763U 23028Y   23347.87803513 -.00001729  00000-0 -13722-3 0  9994,2 55763  69.9995 143.7692 0002700 266.0989  93.9861 14.98312887 43695,6950.246,96.108,573.987,570.234,0.0
55763.0,STARLINK-5593,PAYLOAD,2023-12-14 11:29:34,14.98322406,0.0003335,69.9983,142.2525,275.3088,84.7691,-7.5134e-05,-9.89e-06,0.0,0 STARLINK-5593,1 55763U 23028Y   23348.47887062 -.00000989  00000-0 -75134-4 0  9995,2 55763  69.9983 142.2525 0003335 275.3088  84.7691 14.98322406 43786,6950.216,96.107,574.399,569.763,0.0
55763.0,STARLINK-5593,PAYLOAD,2023-12-14 14:41:50,14.98323126,0.0003294,69.9984,141.916,278.1971,81.8814,-5.558e-05,-7.56e-06,0.0,0 STARLINK-5593,1 55763U 23028Y   23348.61239068 -.00000756  00000-0 -55580-4 0  9993,2 55763  69.9984 141.9160 0003294 278.1971  81.8814 14.98323126 43802,6950.214,96.107,574.369,569.79,0.0
55763.0,STARLINK-5593,PAYLOAD,2023-12-14 19:30:14,14.98325418,0.0002683,69.9996,141.413,261.2637,98.8218,-1.8628e-05,-3.15e-06,0.0,0 STARLINK-5593,1 55763U 23028Y   23348.81266851 -.00000315  00000-0 -18628-4 0  9998,2 55763  69.9996 141.4130 0002683 261.2637  98.8218 14.98325418 43835,6950.207,96.107,573.937,570.207,0.0
55763.0,STARLINK-5593,PAYLOAD,2023-12-15 14:43:51,14.98325891,0.0002817,69.9994,139.3932,265.618,94.4657,0.00019349,2.216e-05,0.0,0 STARLINK-5593,1 55763U 23028Y   23349.61378501  .00002216  00000-0  19349-3 0  9993,2 55763  69.9994 139.3932 0002817 265.6180  94.4657 14.98325891 43956,6950.206,96.107,574.028,570.113,0.0
55763.0,STARLINK-5593,PAYLOAD,2023-12-15 19:32:14,14.98330832,0.0003025,69.9986,138.8871,269.3259,90.7554,0.0002234,2.574e-05,0.0,0 STARLINK-5593,1 55763U 23028Y   23349.81406102  .00002574  00000-0  22340-3 0  9996,2 55763  69.9986 138.8871 0003025 269.3259  90.7554 14.98330832 43982,6950.19,96.107,574.158,569.953,0.0
55763.0,STARLINK-5593,PAYLOAD,2023-12-16 11:33:34,14.98341326,0.0002639,70.0007,137.2068,255.714,104.3726,0.00015354,1.74e-05,0.0,0 STARLINK-5593,1 55763U 23028Y   23350.48165353  .00001740  00000-0  15354-3 0  9992,2 55763  70.0007 137.2068 0002639 255.7140 104.3726 14.98341326 44083,6950.158,96.106,573.857,570.189,0.0
55763.0,STARLINK-5593,PAYLOAD,2023-12-16 13:09:42,14.9834245,0.0002749,69.9998,137.0372,261.3318,98.753,0.00014736,1.666e-05,0.0,0 STARLINK-5593,1 55763U 23028Y   23350.54841269  .00001666  00000-0  14736-3 0  9996,2 55763  69.9998 137.0372 0002749 261.3318  98.7530 14.98342450 44096,6950.154,96.106,573.93,570.109,0.0
55763.0,STARLINK-5593,PAYLOAD,2023-12-16 19:34:14,14.98347562,0.0002962,69.9989,136.3627,266.0215,94.0605,0.00016353,1.86e-05,0.0,0 STARLINK-5593,1 55763U 23028Y   23350.81544588  .00001860  00000-0  16353-3 0  9993,2 55763  69.9989 136.3627 0002962 266.0215  94.0605 14.98347562 44132,6950.139,96.106,574.062,569.945,0.0
55763.0,STARLINK-5593,PAYLOAD,2023-12-17 11:35:35,14.98336106,0.0002396,70.0018,134.6843,228.3483,131.7471,-1.7893e-05,-3.06e-06,0.0,0 STARLINK-5593,1 55763U 23028Y   23351.48305381 -.00000306  00000-0 -17893-4 0  9990,2 55763  70.0018 134.6843 0002396 228.3483 131.7471 14.98336106 44231,6950.174,96.107,573.704,570.374,0.0
55763.0,STARLINK-5593,PAYLOAD,2023-12-17 13:11:44,14.98332467,0.0002586,70.0003,134.5134,250.0368,110.0513,-8.3321e-05,-1.087e-05,0.0,0 STARLINK-5593,1 55763U 23028Y   23351.54981748 -.00001087  00000-0 -83321-4 0  9990,2 55763  70.0003 134.5134 0002586 250.0368 110.0513 14.98332467 44246,6950.185,96.107,573.848,570.253,0.0
55763.0,STARLINK-5593,PAYLOAD,2023-12-17 19:36:16,14.98331508,0.0002613,70.0002,133.8399,251.8962,108.1913,-9.2542e-05,-1.197e-05,0.0,0 STARLINK-5593,1 55763U 23028Y   23351.81685772 -.00001197  00000-0 -92542-4 0  9995,2 55763  70.0002 133.8399 0002613 251.8962 108.1913 14.98331508 44281,6950.188,96.107,573.869,570.237,0.0
55763.0,STARLINK-5593,PAYLOAD,2023-12-18 11:37:35,14.98344732,0.0002667,69.9998,132.157,258.0127,102.0733,-4.7514e-05,-6.6e-06,0.0,0 STARLINK-5593,1 55763U 23028Y   23352.48444378 -.00000660  00000-0 -47514-4 0  9997,2 55763  69.9998 132.1570 0002667 258.0127 102.0733 14.98344732 44383,6950.147,96.106,573.866,570.159,0.0
55763.0,STARLINK-5593,PAYLOAD,2023-12-18 14:49:52,14.98344149,0.0002681,69.9998,131.82,257.7096,102.3763,-5.1954e-05,-7.13e-06,0.0,0 STARLINK-5593,1 55763U 23028Y   23352.61796302 -.00000713  00000-0 -51954-4 0  9991,2 55763  69.9998 131.8200 0002681 257.7096 102.3763 14.98344149 44407,6950.149,96.106,573.877,570.151,0.0
55763.0,STARLINK-5593,PAYLOAD,2023-12-18 19:38:16,14.98343545,0.0002712,69.9998,131.3151,260.7546,99.3306,-5.4407e-05,-7.42e-06,0.0,0 STARLINK-5593,1 55763U 23028Y   23352.81824205 -.00000742  00000-0 -54407-4 0  9995,2 55763  69.9998 131.3151 0002712 260.7546  99.3306 14.98343545 44436,6950.151,96.106,573.901,570.131,0.0
55763.0,STARLINK-5593,PAYLOAD,2023-12-19 11:39:37,14.98327079,0.000282,69.9999,129.6321,255.5531,104.5315,1.1604e-05,4.5e-07,0.0,0 STARLINK-5593,1 55763U 23028Y   23353.48584817  .00000045  00000-0  11604-4 0  9997,2 55763  69.9999 129.6321 0002820 255.5531 104.5315 14.98327079 44536,6950.202,96.107,574.027,570.107,0.0
55763.0,STARLINK-5593,PAYLOAD,2023-12-19 14:51:53,14.98327879,0.0002667,70.0003,129.2961,250.1316,109.9556,1.3238e-05,6.5e-07,0.0,0 STARLINK-5593,1 55763U 23028Y   23353.61936769  .00000065  00000-0  13238-4 0  9996,2 55763  70.0003 129.2961 0002667 250.1316 109.9556 14.98327879 44558,6950.199,96.107,573.918,570.211,0.0
55763.0,STARLINK-5593,PAYLOAD,2023-12-20 11:41:38,14.98328668,0.0002782,69.9996,127.1064,262.6841,97.4002,-8.3493e-05,-1.089e-05,0.0,0 STARLINK-5593,1 55763U 23028Y   23354.48725063 -.00001089  00000-0 -83493-4 0  9994,2 55763  69.9996 127.1064 0002782 262.6841  97.4002 14.98328668 44684,6950.197,96.107,573.996,570.128,0.0
55763.0,STARLINK-5593,PAYLOAD,2023-12-20 13:17:46,14.98327934,0.0002901,69.9997,126.9381,266.7926,93.2902,-7.102e-05,-9.4e-06,0.0,0 STARLINK-5593,1 55763U 23028Y   23354.55401080 -.00000940  00000-0 -71020-4 0  9990,2 55763  69.9997 126.9381 0002901 266.7926  93.2902 14.98327934 44695,6950.199,96.107,574.081,570.048,0.0
55763.0,STARLINK-5593,PAYLOAD,2023-12-20 18:06:10,14.98329706,0.000283,70.0001,126.4339,263.4866,96.5971,-4.9835e-05,-6.88e-06,0.0,0 STARLINK-5593,1 55763U 23028Y   23354.75428906 -.00000688  00000-0 -49835-4 0  9996,2 55763  70.0001 126.4339 0002830 263.4866  96.5971 14.98329706 44725,6950.194,96.107,574.026,570.092,0.0
55763.0,STARLINK-5593,PAYLOAD,2023-12-21 11:43:39,14.98328313,0.0002714,70.0002,124.5826,256.2971,103.7886,3.3267e-05,3.04e-06,0.0,0 STARLINK-5593,1 55763U 23028Y   23355.48864772  .00000304  00000-0  33267-4 0  9997,2 55763  70.0002 124.5826 0002714 256.2971 103.7886 14.98328313 44835,6950.198,96.107,573.949,570.177,0.0
55763.0,STARLINK-5593,PAYLOAD,2023-12-21 14:55:55,14.9832916,0.0002612,70.0007,124.2463,245.797,114.2916,4.6867e-05,4.66e-06,0.0,0 STARLINK-5593,1 55763U 23028Y   23355.62216639  .00000466  00000-0  46867-4 0  9995,2 55763  70.0007 124.2463 0002612 245.7970 114.2916 14.98329160 44857,6950.195,96.107,573.876,570.245,0.0
55763.0,STARLINK-5593,PAYLOAD,2023-12-22 11:45:40,14.98325569,0.0002675,70.0004,122.0573,256.0191,104.0671,6.1191e-05,6.37e-06,0.0,0 STARLINK-5593,1 55763U 23028Y   23356.49004935  .00000637  00000-0  61191-4 0  9992,2 55763  70.0004 122.0573 0002675 256.0191 104.0671 14.98325569 44989,6950.207,96.107,573.931,570.212,0.0
55763.0,STARLINK-5593,PAYLOAD,2023-12-22 13:21:48,14.98324922,0.000265,70.0005,121.8888,252.0212,108.0658,5.9446e-05,6.16e-06,0.0,0 STARLINK-5593,1 55763U 23028Y   23356.55680993  .00000616  00000-0  59446-4 0  9990,2 55763  70.0005 121.8888 0002650 252.0212 108.0658 14.98324922 44991,6950.209,96.107,573.915,570.232,0.0
55763.0,STARLINK-5593,PAYLOAD,2023-12-22 18:10:12,14.98327283,0.0002738,70.0003,121.3842,259.1065,100.9786,2.1061e-05,1.58e-06,0.0,0 STARLINK-5593,1 55763U 23028Y   23356.75709012  .00000158  00000-0  21061-4 0  9999,2 55763  70.0003 121.3842 0002738 259.1065 100.9786 14.98327283 45026,6950.201,96.107,573.969,570.163,0.0
55763.0,STARLINK-5593,PAYLOAD,2023-12-23 11:47:40,14.98332968,0.0002795,70.0002,119.5316,262.7464,97.3377,1.9124e-05,1.35e-06,0.0,0 STARLINK-5593,1 55763U 23028Y   23357.49144638  .00000135  00000-0  19124-4 0  9990,2 55763  70.0002 119.5316 0002795 262.7464  97.3377 14.98332968 45139,6950.184,96.107,573.991,570.106,0.0
55763.0,STARLINK-5593,PAYLOAD,2023-12-23 13:23:49,14.98333056,0.0002791,70.0003,119.3633,262.8357,97.2485,2.1023e-05,1.58e-06,0.0,0 STARLINK-5593,1 55763U 23028Y   23357.55820622  .00000158  00000-0  21023-4 0  9997,2 55763  70.0003 119.3633 0002791 262.8357  97.2485 14.98333056 45147,6950.183,96.107,573.988,570.109,0.0
55763.0,STARLINK-5593,PAYLOAD,2023-12-23 18:12:13,14.98325104,0.0002787,70.0004,118.8581,264.9153,95.1688,0.00020197,2.317e-05,0.0,0 STARLINK-5593,1 55763U 23028Y   23357.75848652  .00002317  00000-0  20197-3 0  9991,2 55763  70.0004 118.8581 0002787 264.9153  95.1688 14.98325104 45176,6950.208,96.107,574.01,570.136,0.0
55763.0,STARLINK-5593,PAYLOAD,2023-12-24 11:49:41,14.98331853,0.000287,70.0004,117.0072,265.0526,95.0306,3.4814e-05,3.22e-06,0.0,0 STARLINK-5593,1 55763U 23028Y   23358.49284443  .00000322  00000-0  34814-4 0  9991,2 55763  70.0004 117.0072 0002870 265.0526  95.0306 14.98331853 45287,6950.187,96.107,574.047,570.057,0.0
